COMMENT,ORIGINATOR,NORAD_CAT_ID,OBJECT_NAME,OBJECT_TYPE,CLASSIFICATION_TYPE,INTLDES,EPOCH,EPOCH_MICROSECONDS,MEAN_MOTION,ECCENTRICITY,INCLINATION,RA_OF_ASC_NODE,ARG_OF_PERICENTER,MEAN_ANOMALY,EPHEMERIS_TYPE,ELEMENT_SET_NO,REV_AT_EPOCH,BSTAR,MEAN_MOTION_DOT,MEAN_MOTION_DDOT,FILE,TLE_LINE0,TLE_LINE1,TLE_LINE2,OBJECT_ID,OBJECT_NUMBER,SEMIMAJOR_AXIS,PERIOD,APOGEE,PERIGEE,DECAYED
"GENERATED VIA SPACETRACK.ORG API","18 SPCS","48884","SPACEBEE-101","PAYLOAD","U","21059F","2023-05-31 21:14:21","970464","15.30139582","0.0005194","97.5924","288.1666","330.7955","29.2994","0","999","10688","0.00091539","0.00026694","0","3922037","0 SPACEBEE-101","1 48884U 21059F   23151.88497651  .00026694  00000-0  91539-3 0  9996","2 48884  97.5924 288.1666 0005194 330.7955  29.2994 15.30139582106883","2021-059F","48884","6853.532","94.109","478.957","471.838","0"
"GENERATED VIA SPACETRACK.ORG API","18 SPCS","48884","SPACEBEE-101","PAYLOAD","U","21059F","2023-06-01 08:13:32","830176","15.30166228","0.0005247","97.5926","288.6346","329.3559","30.7374","0","999","10695","0.0010199","0.00029787","0","3922365","0 SPACEBEE-101","1 48884U 21059F   23152.34274109  .00029787  00000-0  10199-2 0  9997","2 48884  97.5926 288.6346 0005247 329.3559  30.7374 15.30166228106952","2021-059F","48884","6853.453","94.107","478.914","471.722","0"
"GENERATED VIA SPACETRACK.ORG API","18 SPCS","48884","SPACEBEE-101","PAYLOAD","U","21059F","2023-06-01 08:13:32","830176","15.30166228","0.0005247","97.5926","288.6346","329.3559","30.7374","0","999","10695","0.0010199","0.00029787","0","3922462","0 SPACEBEE-101","1 48884U 21059F   23152.34274109  .00029787  00000-0  10199-2 0  9997","2 48884  97.5926 288.6346 0005247 329.3559  30.7374 15.30166228106952","2021-059F","48884","6853.453","94.107","478.914","471.722","0"
"GENERATED VIA SPACETRACK.ORG API","18 SPCS","48884","SPACEBEE-101","PAYLOAD","U","21059F","2023-06-02 07:46:02","267904","15.30219875","0.0005236","97.593","289.637","325.2124","34.8773","0","999","10710","0.00085348","0.00024939","0","3923342","0 SPACEBEE-101","1 48884U 21059F   23153.32363736  .00024939  00000-0  85348-3 0  9994","2 48884  97.5930 289.6370 0005236 325.2124  34.8773 15.30219875107109","2021-059F","48884","6853.293","94.104","478.746","471.569","0"
"GENERATED VIA SPACETRACK.ORG API","18 SPCS","48884","SPACEBEE-101","PAYLOAD","U","21059F","2023-06-03 02:35:59","750016","15.30262183","0.0005196","97.5932","290.4388","322.0206","38.0667","0","999","10722","0.0009709","0.00028431","0","3923615","0 SPACEBEE-101","1 48884U 21059F   23154.10833044  .00028431  00000-0  97090-3 0  9993","2 48884  97.5932 290.4388 0005196 322.0206  38.0667 15.30262183107222","2021-059F","48884","6853.166","94.102","478.592","471.471","0"
"GENERATED VIA SPACETRACK.ORG API","18 SPCS","48884","SPACEBEE-101","PAYLOAD","U","21059F","2023-06-03 08:52:38","528832","15.30274016","0.0005189","97.5932","290.7062","321.4009","38.6859","0","999","10726","0.00086604","0.00025351","0","3924076","0 SPACEBEE-101","1 48884U 21059F   23154.36989038  .00025351  00000-0  86604-3 0  9993","2 48884  97.5932 290.7062 0005189 321.4009  38.6859 15.30274016107261","2021-059F","48884","6853.131","94.101","478.552","471.440","0"
"GENERATED VIA SPACETRACK.ORG API","18 SPCS","48884","SPACEBEE-101","PAYLOAD","U","21059F","2023-06-03 21:25:55","584480","15.30297823","0.0005163","97.5935","291.2407","318.7912","41.2938","0","999","10734","0.00084358","0.00024707","0","3924324","0 SPACEBEE-101","1 48884U 21059F   23154.89300445  .00024707  00000-0  84358-3 0  9998","2 48884  97.5935 291.2407 0005163 318.7912  41.2938 15.30297823107345","2021-059F","48884","6853.060","94.099","478.463","471.387","0"
"GENERATED VIA SPACETRACK.ORG API","18 SPCS","48884","SPACEBEE-101","PAYLOAD","U","21059F","2023-06-03 23:00:05","166432","15.30300772","0.0005169","97.5935","291.3076","318.5141","41.5706","0","999","10735","0.00086414","0.00025316","0","3924433","0 SPACEBEE-101","1 48884U 21059F   23154.95839313  .00025316  00000-0  86414-3 0  9998","2 48884  97.5935 291.3076 0005169 318.5141  41.5706 15.30300772107351","2021-059F","48884","6853.051","94.099","478.459","471.374","0"
"GENERATED VIA SPACETRACK.ORG API","18 SPCS","48884","SPACEBEE-101","PAYLOAD","U","21059F","2023-06-04 14:41:40","315488","15.30331373","0.0005187","97.5937","291.976","315.4323","44.65","0","999","10745","0.00087265","0.00025591","0","3924842","0 SPACEBEE-101","1 48884U 21059F   23155.61227217  .00025591  00000-0  87265-3 0  9996","2 48884  97.5937 291.9760 0005187 315.4323  44.6500 15.30331373107455","2021-059F","48884","6852.960","94.097","478.379","471.270","0"
"GENERATED VIA SPACETRACK.ORG API","18 SPCS","48884","SPACEBEE-101","PAYLOAD","U","21059F","2023-06-04 22:32:27","417408","15.30349996","0.0005202","97.5939","292.3102","313.807","46.2739","0","999","10750","0.0009112","0.00026744","0","3925173","0 SPACEBEE-101","1 48884U 21059F   23155.93920622  .00026744  00000-0  91120-3 0  9997","2 48884  97.5939 292.3102 0005202 313.8070  46.2739 15.30349996107509","2021-059F","48884","6852.904","94.096","478.334","471.204","0"
"GENERATED VIA SPACETRACK.ORG API","18 SPCS","48884","SPACEBEE-101","PAYLOAD","U","21059F","2023-06-05 00:06:36","814464","15.303529","0.0005206","97.5939","292.377","313.7344","46.3465","0","999","10751","0.00091326","0.00026808","0","3925263","0 SPACEBEE-101","1 48884U 21059F   23156.00459276  .00026808  00000-0  91326-3 0  9997","2 48884  97.5939 292.3770 0005206 313.7344  46.3465 15.30352900107514","2021-059F","48884","6852.896","94.096","478.328","471.193","0"
"GENERATED VIA SPACETRACK.ORG API","18 SPCS","48884","SPACEBEE-101","PAYLOAD","U","21059F","2023-06-05 07:57:23","544000","15.3037011","0.0005244","97.5939","292.7114","312.8054","47.2744","0","999","10756","0.00089005","0.00026136","0","3925691","0 SPACEBEE-101","1 48884U 21059F   23156.33152250  .00026136  00000-0  89005-3 0  9990","2 48884  97.5939 292.7114 0005244 312.8054  47.2744 15.30370110107568","2021-059F","48884","6852.844","94.095","478.303","471.116","0"
"GENERATED VIA SPACETRACK.ORG API","18 SPCS","48884","SPACEBEE-101","PAYLOAD","U","21059F","2023-06-06 09:03:50","708736","15.30431604","0.0005211","97.5944","293.781","308.4693","51.6079","0","999","10772","0.00095003","0.00027962","0","3926112","0 SPACEBEE-101","1 48884U 21059F   23157.37767024  .00027962  00000-0  95003-3 0  9999","2 48884  97.5944 293.7810 0005211 308.4693  51.6079 15.30431604107726","2021-059F","48884","6852.661","94.091","478.097","470.955","0"
"GENERATED VIA SPACETRACK.ORG API","18 SPCS","48884","SPACEBEE-101","PAYLOAD","U","21059F","2023-06-06 09:03:50","708736","15.30431604","0.0005211","97.5944","293.781","308.4693","51.6079","0","999","10772","0.00095003","0.00027962","0","3926325","0 SPACEBEE-101","1 48884U 21059F   23157.37767024  .00027962  00000-0  95003-3 0  9999","2 48884  97.5944 293.7810 0005211 308.4693  51.6079 15.30431604107726","2021-059F","48884","6852.661","94.091","478.097","470.955","0"
"GENERATED VIA SPACETRACK.ORG API","18 SPCS","48884","SPACEBEE-101","PAYLOAD","U","21059F","2023-06-06 20:02:53","985120","15.30458577","0.000519","97.5944","294.2488","306.3376","53.7384","0","999","10779","0.00095259","0.00028062","0","3926571","0 SPACEBEE-101","1 48884U 21059F   23157.83534705  .00028062  00000-0  95259-3 0  9993","2 48884  97.5944 294.2488 0005190 306.3376  53.7384 15.30458577107791","2021-059F","48884","6852.580","94.089","478.002","470.889","0"
"GENERATED VIA SPACETRACK.ORG API","18 SPCS","48884","SPACEBEE-101","PAYLOAD","U","21059F","2023-06-07 08:36:05","544000","15.30484739","0.0005218","97.5944","294.7839","304.5288","55.5459","0","999","10787","0.00089959","0.00026512","0","3927174","0 SPACEBEE-101","1 48884U 21059F   23158.35839750  .00026512  00000-0  89959-3 0  9997","2 48884  97.5944 294.7839 0005218 304.5288  55.5459 15.30484739107870","2021-059F","48884","6852.502","94.088","477.943","470.791","0"
"GENERATED VIA SPACETRACK.ORG API","18 SPCS","48884","SPACEBEE-101","PAYLOAD","U","21059F","2023-06-07 21:09:16","274304","15.30513334","0.0005241","97.5946","295.3183","301.6753","58.3976","0","999","10795","0.00092787","0.00027375","0","3927436","0 SPACEBEE-101","1 48884U 21059F   23158.88143836  .00027375  00000-0  92787-3 0  9999","2 48884  97.5946 295.3183 0005241 301.6753  58.3976 15.30513334107950","2021-059F","48884","6852.417","94.086","477.873","470.690","0"
"GENERATED VIA SPACETRACK.ORG API","18 SPCS","48884","SPACEBEE-101","PAYLOAD","U","21059F","2023-06-07 22:43:25","68288","15.30516472","0.0005239","97.5947","295.3853","301.5591","58.5138","0","999","10796","0.00093862","0.00027697","0","3927533","0 SPACEBEE-101","1 48884U 21059F   23158.94681792  .00027697  00000-0  93862-3 0  9996","2 48884  97.5947 295.3853 0005239 301.5591  58.5138 15.30516472107960","2021-059F","48884","6852.407","94.086","477.862","470.682","0"
"GENERATED VIA SPACETRACK.ORG API","18 SPCS","48884","SPACEBEE-101","PAYLOAD","U","21059F","2023-06-08 14:24:52","163136","15.30552258","0.0005299","97.5946","296.054","299.1711","60.8999","0","999","10806","0.00096029","0.00028373","0","3928007","0 SPACEBEE-101","1 48884U 21059F   23159.60060374  .00028373  00000-0  96029-3 0  9997","2 48884  97.5946 296.0540 0005299 299.1711  60.8999 15.30552258108067","2021-059F","48884","6852.300","94.084","477.797","470.534","0"
"GENERATED VIA SPACETRACK.ORG API","18 SPCS","48884","SPACEBEE-101","PAYLOAD","U","21059F","2023-06-09 09:14:34","831104","15.30598288","0.0005298","97.5945","296.8567","296.4386","63.631","0","999","10818","0.00093307","0.00027603","0","3928876","0 SPACEBEE-101","1 48884U 21059F   23160.38512536  .00027603  00000-0  93307-3 0  9997","2 48884  97.5945 296.8567 0005298 296.4386  63.6310 15.30598288108184","2021-059F","48884","6852.163","94.081","477.658","470.398","0"
